[{"OBJECT_NAME":"STARLINK-1277","OBJECT_ID":"2020-019K","EPOCH":"2026-03-10T00:00:02.999808","MEAN_MOTION":15.48940207,"ECCENTRICITY":0.00040314,"INCLINATION":53.0509,"RA_OF_ASC_NODE":151.1274,"ARG_OF_PERICENTER":12.6993,"MEAN_ANOMALY":253.0952,"EPHEMERIS_TYPE":0,"CLASSIFICATION_TYPE":"U","NORAD_CAT_ID":45369,"ELEMENT_SET_NO":999,"REV_AT_EPOCH":575,"BSTAR":0.002005627,"MEAN_MOTION_DOT":0.00111275,"MEAN_MOTION_DDOT":0},{"OBJECT_NAME":"OUTPOST MISSION 2","OBJECT_ID":"2023-174CG","EPOCH":"2026-03-09T22:51:56.861280","MEAN_MOTION":15.50733673,"ECCENTRICITY":0.00069991,"INCLINATION":97.3967,"RA_OF_ASC_NODE":158.6721,"ARG_OF_PERICENTER":123.0505,"MEAN_ANOMALY":237.142,"EPHEMERIS_TYPE":0,"CLASSIFICATION_TYPE":"U","NORAD_CAT_ID":58334,"ELEMENT_SET_NO":999,"REV_AT_EPOCH":13041,"BSTAR":0.00067138638,"MEAN_MOTION_DOT":0.00038683,"MEAN_MOTION_DDOT":0}]
